GLOBALSTAR 02
1 25163U 98008B   99364.01666228 -.00000104  00000-0  00000+0 0  2543
2 25163  52.0037 330.5019 0000408 110.6760 249.4137 12.62259530 86469
GLOBALSTAR 03
1 25164U 98008C   99363.88762884 -.00000104  00000-0  00000+0 0  2745
2 25164  52.0035 330.6965 0001528 114.9667 245.1355 12.62365305 86458
GLOBALSTAR 04
1 25165U 98008D   99363.05060485 -.00000104  00000-0  00000-0 0  3172
2 25165  51.9661 333.0554 0001277  60.4415 299.6572 12.62258378 86333
GLOBALSTAR 05
1 25306U 98023A   99363.49033231 -.00000104  00000-0  00000+0 0  1956
2 25306  51.9983  17.2054 0001942  95.7007 264.4081 12.62265575 77556
GLOBALSTAR 06
1 25307U 98023B   99363.15774988 -.00000104  00000-0  00000-0 0  2111
2 25307  52.0073  18.2069 0001440 127.1221 232.9771 12.62264608 77515
GLOBALSTAR 07
1 25308U 98023C   99363.44281306 -.00000104  00000-0  00000+0 0  2064
2 25308  51.9996  17.0667 0000327  20.1285 339.9594 12.62268560 77550
GLOBALSTAR 08
1 25309U 98023D   99363.18933919 -.00000104  00000-0  00000-0 0  1958
2 25309  51.9980  18.0656 0001412 161.3192 198.7728 12.62264160 77534
GLOBALSTAR 19
1 25679U 99019D   99362.92399552 -.00000104  00000-0  00000-0 0  1123
2 25679  52.0028 153.9430 0001221 107.6236 252.4764 12.62270582 32677
GLOBALSTAR 22
1 25649U 99012A   99363.53372129 -.00000086  00000-0  10000-3 0  1024
2 25649  52.0115  62.1543 0002646 148.1909 211.9118 12.62270560 36680
GLOBALSTAR 23
1 25623U 99004C   99363.13393752 -.00000104  00000-0  00000-0 0  1373
2 25623  51.9969 288.6320 0001175 326.8112  33.2681 12.62262044 41079
GLOBALSTAR 24
1 25883U 99043A   99363.12209923 -.00000104  00000-0  00000-0 0   828
2 25883  52.0170 243.5314 0001599 122.3720 237.7302 12.62265535 16925
GLOBALSTAR 25
1 25772U 99031C   99364.74935192 -.00000314  00000-0 -11749-2 0  1026
2 25772  52.0302 103.4691 0002301 146.5368 213.5651 12.62259630 25668
GLOBALSTAR 26
1 25872U 99041A   99363.55357211 -.00000104  00000-0  00000+0 0   644
2 25872  52.0117 196.7216 0002468  84.5185 275.5964 12.62265965 19861
GLOBALSTAR 27
1 25884U 99043B   99363.13782442 -.00000104  00000-0  00000-0 0   620
2 25884  52.0179 243.0430 0001813  36.8673 323.2320 12.62272490 16934
GLOBALSTAR 28
1 25873U 99041B   99363.01524130 -.00000104  00000-0  00000-0 0   755
2 25873  52.0134 198.4718 0001035  98.0523 262.0462 12.62267435 19792
GLOBALSTAR 30
1 25852U 99037B   99363.43075101 -.00000104  00000-0  00000+0 0   616
2 25852  52.0050 151.8496 0001605 106.9993 253.1050 12.62267294 21739
GLOBALSTAR 32
1 25851U 99037A   99363.49409351 -.00000104  00000-0  00000+0 0   619
2 25851  51.9978 151.5298 0002264  95.1015 265.0125 12.62263460 21745
GLOBALSTAR 33
1 25907U 99049A   99364.11136093 -.00000086  00000-0  10000-3 0   517
2 25907  52.0018 240.6360 0003544 131.7097 228.4077 12.62265225 13306
GLOBALSTAR 35
1 25853U 99037C   99362.90827814 -.00000104  00000-0  00000-0 0  1357
2 25853  51.9981 153.6521 0001544  88.7230 271.3813 12.62263030 21668
GLOBALSTAR 36
1 25621U 99004A   99363.16536194 -.00000104  00000-0  00000-0 0  1328
2 25621  52.0051 288.1924 0001477 224.9191 135.1552 12.62263639 41065
GLOBALSTAR 37
1 25652U 99012D   99363.18540384 -.00000123  00000-0 -10815-3 0  1228
2 25652  52.0129  63.4604 0001087 153.2384 206.8543 12.62266709 36598
GLOBALSTAR 38
1 25624U 99004D   99363.86252928 -.00000104  00000-0  00000+0 0  1002
2 25624  52.0138 285.3333 0002168 330.0297  30.0452 12.62267302 41187
GLOBALSTAR 40
1 25622U 99004B   99364.14729445 -.00000104  00000-0  00000+0 0  1117
2 25622  51.9933 285.1684 0001764 359.1468   0.9372 12.62265611 41195
GLOBALSTAR 41
1 25650U 99012B   99363.23285509 -.00000086  00000-0  10000-3 0  1253
2 25650  52.0126  63.1443 0000587 186.1281 173.9581 12.62265902 36642
GLOBALSTAR 42
1 25677U 99019B   99363.22869352 -.00000073  00000-0  17377-3 0  1151
2 25677  51.9945 108.2262 0002310 115.9749 244.1356 12.62267311 34143
GLOBALSTAR 43
1 25874U 99041C   99363.06251598 -.00000104  00000-0  00000-0 0   701
2 25874  52.0030 198.6508 0001011 143.8340 216.2597 12.62267521 19793
GLOBALSTAR 44
1 25678U 99019C   99364.54024453 -.00000104  00000-0  67109-6 0  1081
2 25678  52.0032  59.5554 0000733 177.4020 182.6851 12.62266754 33704
GLOBALSTAR 45
1 25676U 99019A   99363.20131543 -.00000073  00000-0  16896-3 0  1731
2 25676  51.9992  62.9712 0001420 182.4501 177.6359 12.62263751 34198
GLOBALSTAR 46
1 25651U 99012C   99363.16950749 -.00000086  00000-0  10000-3 0  1206
2 25651  52.0085  62.2026 0001950  79.4826 280.6265 12.62269645 36629
GLOBALSTAR 47
1 25773U 99031D   99364.44829348  .00000983  00000-0  60642-2 0  2217
2 25773  51.9935 104.4255 0001372  62.6845 297.4156 12.62280867 25624
GLOBALSTAR 48
1 25875U 99041D   99363.04673526 -.00000104  00000-0  00000-0 0  1272
2 25875  51.9994 198.5728 0002358  52.3399 307.7681 12.62260026 19790
GLOBALSTAR 49
1 25771U 99031B   99364.70187039 -.00007376  00000-0 -40630-1 0  2194
2 25771  51.9953 103.8038 0000724 139.7296 220.7171 12.62236459 25657
GLOBALSTAR 50
1 25908U 99049B   99364.20190143 -.00000054  00000-0  27737-3 0   468
2 25908  52.0021 284.7417 0002457  67.7443 292.3684 12.62259945 12549
GLOBALSTAR 51
1 25854U 99037D   99362.89245973 -.00000104  00000-0  00000-0 0   951
2 25854  52.0072 153.6009 0002205  99.5943 260.5174 12.62262028 21665
GLOBALSTAR 52
1 25770U 99031A   99362.73786889 -.00000086  00000-0  10000-3 0   965
2 25770  51.9918 109.8992 0001087 105.1144 254.9842 12.62263703 25403
GLOBALSTAR 53
1 25885U 99043C   99363.16943257 -.00000104  00000-0  00000-0 0   650
2 25885  52.0202 243.1614 0002248  33.0353 327.0654 12.62273812 16935
GLOBALSTAR 54
1 25886U 99043D   99363.10640098 -.00000104  00000-0  00000-0 0   708
2 25886  52.0293 243.4899 0001166  49.2882 310.8087 12.62267129 16921
GLOBALSTAR 55
1 25909U 99049C   99363.15372318 -.00000086  00000-0  10000-3 0   727
2 25909  52.0054 243.4901 0001444 131.7125 228.3868 12.62259645 13169
GLOBALSTAR 58
1 25910U 99049D   99363.18158459 -.00000076  00000-0  15649-3 0   600
2 25910  52.0049 287.8985 0000813  50.2290 309.8651 12.62274204 12427
GLOBALSTAR A
1 25943U 99058A   99364.48810417  .00006979  00000-0  39491-1 0   908
2 25943  51.9991  14.2450 0005124  15.0579 344.7575 12.62280776  9290
GLOBALSTAR B
1 25944U 99058B   99363.18254896 -.00000086  00000-0  10000-3 0   369
2 25944  52.0076  17.3544 0001015 188.3054 171.7796 12.62280273  9152
GLOBALSTAR C
1 25945U 99058C   99364.28592230 -.00000086  00000-0  10000-3 0   280
2 25945  51.9869 329.8991 0024552 102.7263 238.5134 12.65065736 10036
GLOBALSTAR D
1 25946U 99058D   99361.93820814 -.00000115  00000-0 -40611-4 0   626
2 25946  51.9927 337.2015 0022621 104.7042 255.6329 12.72259800  9752
GLOBALSTAR M029
1 25961U 99062A   99362.97744399  .00000024  00000-0  13302-3 0   360
2 25961  51.9642 178.4514 0030779 329.1618  30.7499 13.92618794  5049
GLOBALSTAR M034
1 25962U 99062B   99364.57466943  .00005923  00000-0  33604-1 0   420
2 25962  51.9865 194.2956 0002862  89.1257 270.4260 12.62285348  4923
GLOBALSTAR M039
1 25963U 99062C   99362.91962843 -.00000008  00000-0  10870-3 0   799
2 25963  51.9657 178.8002 0029334 326.0837  33.8212 13.92047274  5032
GLOBALSTAR M061
1 25964U 99062D   99363.03119426 -.00000086  00000-0  10000-3 0   639
2 25964  51.9940 198.6990 0001004 163.7212 196.3688 12.62276625  4739
GLONASS 64 (758)
1 23045U 94021C   99363.59791931 -.00000048  00000-0  00000+0 0  8838
2 23045  64.0296 278.5998 0011740  27.5324 332.5648  2.13102526 44503
GLONASS 66 (775)
1 23204U 94050B   99363.96786800  .00000087  00000-0  00000+0 0  8132
2 23204  64.7581 160.8978 0013591 356.3180   3.6645  2.13102510 41901
GLONASS 67 (770)
1 23205U 94050C   99364.31910824  .00000087  00000-0  00000+0 0  8396
2 23205  64.7675 160.8857 0000735   1.8154 358.1784  2.13101910 41917
GLONASS 69 (764)
1 23397U 94076B   99363.88064452 -.00000063  00000-0  00000+0 0  7624
2 23397  65.6574  40.6178 0012654 306.7223  53.2231  2.13100304 39749
GLONASS 70 (762)
1 23398U 94076C   99362.35493387 -.00000065  00000-0  00000-0 0  7600
2 23398  65.6488  40.6220 0003364 279.6042  80.4174  2.13100713 39727
GLONASS 71 (765)
1 23511U 95009A   99362.29135142 -.00000037  00000-0  00000-0 0  7013
2 23511  64.0674 278.9617 0008306 215.2661 144.7170  2.13105517 37448
GLONASS 72 (766)
1 23512U 95009B   99362.90430449 -.00000043  00000-0  00000-0 0  6791
2 23512  64.0544 278.9320 0005899 319.2330  40.7596  2.13099677 37455
GLONASS 75 (781)
1 23621U 95037B   99363.14728663  .00000086  00000-0  00000+0 0  6579
2 23621  64.8408 160.8907 0017618 176.8229 183.1772  2.13102523 34493
GLONASS 76 (785)
1 23622U 95037C   99362.26533258  .00000081  00000-0  00000-0 0  6640
2 23622  64.8360 160.9086 0034199 164.6973 195.3966  2.13102790 34478
GLONASS 77 (776)
1 23736U 95068C   99363.55790619  .00000087  00000-0  00000+0 0  6420
2 23736  64.8162 160.7660 0007550 189.3648 170.6146  2.13102400 31464
GLONASS 78 (778)
1 23735U 95068B   99363.91022518  .00000087  00000-0  00000+0 0  6346
2 23735  64.8275 160.7497 0004558 213.2271 146.7376  2.13102200 31478
GLONASS 79 (782)
1 23734U 95068A   99363.32476876  .00000086  00000-0  00000+0 0  6844
2 23734  64.8301 160.7950 0014133 324.4348  35.4694  2.13102132 31461
GLONASS 80 (786)
1 25594U 98077B   99363.05001789 -.00000066  00000-0  00000-0 0  3027
2 25594  64.9574  40.4196 0010267  52.5224 307.6388  2.13101804  7734
GLONASS 81 (784)
1 25595U 98077C   99364.39881741 -.00000063  00000-0  00000+0 0  2856
2 25595  64.9697  40.3552 0002362 139.9153 220.1680  2.13102921  7762
GLONASS 82 (779)
1 25593U 98077A   99364.51753237 -.00000062  00000-0  00000+0 0  2866
2 25593  64.9631  40.3649 0009505  73.5359 286.6324  2.13101712  7761
GMS 5
1 23522U 95011B   99363.82311999 -.00000285  00000-0  00000+0 0  4295
2 23522   0.6640  63.0583 0001837 298.6705 172.4495  1.00277065 17393
GO-32
1 25397U 98043D   99363.17079880 -.00000044  00000-0  00000-0 0  2532
2 25397  98.7414  75.1397 0000253 297.2416  62.8737 14.22318289 76358
